{
"type": "FeatureCollection",
"name": "ward25_precincts",
"crs": { "type": "name", "properties": { "name": "urn:ogc:def:crs:OGC:1.3:CRS84" } },
"features": [
{ "type": "Feature", "properties": { "ward": 25, "precinct": 1, "ward_precinct": "25001" }, "geometry": { "type": "Polygon", "coordinates": [ [ [ -87.709861999731459, 41.842622999851642 ], [ -87.710018999776992, 41.848076999553939 ], [ -87.707585999993853, 41.848110000176405 ], [ -87.707612000293523, 41.849944000215487 ], [ -87.70030200043692, 41.850015999938478 ], [ -87.700248999791484, 41.848205000060773 ], [ -87.70514799998017, 41.848139999761258 ], [ -87.704983999611841, 41.842696999666828 ], [ -87.709861999731459, 41.842622999851642 ] ] ] } },
{ "type": "Feature", "properties": { "ward": 25, "precinct": 2, "ward_precinct": "25002" }, "geometry": { "type": "Polygon", "coordinates": [ [ [ -87.704658999912851, 41.83125299982612 ], [ -87.70514799998017, 41.848139999761258 ], [ -87.700248999791484, 41.848205000060773 ], [ -87.699925000138592, 41.837324000102569 ], [ -87.691283000010401, 41.837473999825306 ], [ -87.689719999878037, 41.837920999754374 ], [ -87.689590000178328, 41.838014999592588 ], [ -87.689553000270735, 41.838153999707401 ], [ -87.687617000024488, 41.838189000422062 ], [ -87.687617000024488, 41.837609999801714 ], [ -87.687899000438506, 41.837553999917191 ], [ -87.688118999791982, 41.837312000448492 ], [ -87.694962999742586, 41.835086000318711 ], [ -87.694946999904062, 41.834383000275295 ], [ -87.695158999787964, 41.834258999952965 ], [ -87.699813000369659, 41.832803000258309 ], [ -87.700004000184435, 41.832804000304407 ], [ -87.700261000344881, 41.832661000005203 ], [ -87.704658999912851, 41.83125299982612 ] ] ] } },
{ "type": "Feature", "properties": { "ward": 25, "precinct": 3, "ward_precinct": "25003" }, "geometry": { "type": "Polygon", "coordinates": [ [ [ -87.699089000257118, 41.851853000115909 ], [ -87.699212999680128, 41.855505000355549 ], [ -87.695568999809439, 41.855551999824968 ], [ -87.695647999855282, 41.857386999910148 ], [ -87.693168999749503, 41.857428000002244 ], [ -87.693128999703561, 41.855781999639646 ], [ -87.688171000391321, 41.856914999727508 ], [ -87.688027000045963, 41.8538569999007 ], [ -87.690598999943859, 41.853821000039147 ], [ -87.690543000059392, 41.851969000069346 ], [ -87.699089000257118, 41.851853000115909 ] ] ] } },
{ "type": "Feature", "properties": { "ward": 25, "precinct": 4, "ward_precinct": "25004" }, "geometry": { "type": "Polygon", "coordinates": [ [ [ -87.695030000134352, 41.837411999664084 ], [ -87.694123999722763, 41.838116999799752 ], [ -87.694198000437325, 41.838216999914664 ], [ -87.694267000022023, 41.840582000159259 ], [ -87.694379999837111, 41.841231000410403 ], [ -87.693145000441405, 41.841387000409782 ], [ -87.692867000211834, 41.841564999625064 ], [ -87.692791000304396, 41.84171800038547 ], [ -87.692746000027853, 41.84294300021935 ], [ -87.692582999705621, 41.8431190002417 ], [ -87.691822999731642, 41.843451000263485 ], [ -87.691791000054593, 41.844528999613715 ], [ -87.691797000331235, 41.844737000212433 ], [ -87.692791000304396, 41.844722000420063 ], [ -87.692893999658338, 41.848296999806735 ], [ -87.695345000271516, 41.848264000083589 ], [ -87.695446000432526, 41.85190199967758 ], [ -87.690543000059392, 41.851969000069346 ], [ -87.69049200040547, 41.850144999592089 ], [ -87.685587999986183, 41.850214000076107 ], [ -87.685446999779174, 41.844838000373443 ], [ -87.687614999932237, 41.844794000143054 ], [ -87.687442000048236, 41.843639999986067 ], [ -87.687617000024488, 41.838189000422062 ], [ -87.689553000270735, 41.838153999707401 ], [ -87.689590000178328, 41.838014999592588 ], [ -87.689719999878037, 41.837920999754374 ], [ -87.69115100021844, 41.837487000424801 ], [ -87.695030000134352, 41.837411999664084 ] ] ] } },
{ "type": "Feature", "properties": { "ward": 25, "precinct": 5, "ward_precinct": "25005" }, "geometry": { "type": "Polygon", "coordinates": [ [ [ -87.685639999686202, 41.852032000276665 ], [ -87.685789000262105, 41.857238000233565 ], [ -87.680333999614334, 41.858418999836999 ], [ -87.678444999736939, 41.858707999674493 ], [ -87.678417000244337, 41.856721999820479 ], [ -87.680875000280992, 41.85669300028178 ], [ -87.680833000142798, 41.855144999941842 ], [ -87.680759000327555, 41.854902999573824 ], [ -87.680873000188797, 41.854817000104504 ], [ -87.680742999589711, 41.852098999769055 ], [ -87.685639999686202, 41.852032000276665 ] ] ] } },
{ "type": "Feature", "properties": { "ward": 25, "precinct": 6, "ward_precinct": "25006" }, "geometry": { "type": "Polygon", "coordinates": [ [ [ -87.685446999779174, 41.844838000373443 ], [ -87.685639999686202, 41.852032000276665 ], [ -87.680742999589711, 41.852098999769055 ], [ -87.680597000051478, 41.846679999882156 ], [ -87.685446999779174, 41.844838000373443 ] ] ] } },
{ "type": "Feature", "properties": { "ward": 25, "precinct": 7, "ward_precinct": "25007" }, "geometry": { "type": "Polygon", "coordinates": [ [ [ -87.680742999589711, 41.852098999769055 ], [ -87.680873000188797, 41.854817000104504 ], [ -87.680759000327555, 41.854902999573824 ], [ -87.680833000142798, 41.855144999941842 ], [ -87.680875000280992, 41.85669300028178 ], [ -87.678417000244337, 41.856721999820479 ], [ -87.67849100005958, 41.858941999673618 ], [ -87.676042000437917, 41.859286000248744 ], [ -87.675840000115898, 41.852175999722647 ], [ -87.680742999589711, 41.852098999769055 ] ] ] } },
{ "type": "Feature", "properties": { "ward": 25, "precinct": 8, "ward_precinct": "25008" }, "geometry": { "type": "Polygon", "coordinates": [ [ [ -87.678044000130456, 41.843461999871465 ], [ -87.67817199973797, 41.847608999555746 ], [ -87.680597000051478, 41.846679999882156 ], [ -87.680742999589711, 41.852098999769055 ], [ -87.666023999807692, 41.852330999675928 ], [ -87.665881000407808, 41.845111000372412 ], [ -87.666928000127086, 41.84511200041851 ], [ -87.667714000400736, 41.845025000003773 ], [ -87.670027000045991, 41.844306000121833 ], [ -87.674248999591612, 41.842675999597759 ], [ -87.675064000303337, 41.842280000221876 ], [ -87.675504999955763, 41.841972999554343 ], [ -87.676078000299412, 41.84181899964716 ], [ -87.676297999652945, 41.841836000431101 ], [ -87.676643000274225, 41.841978999831042 ], [ -87.677097999672924, 41.842028000292032 ], [ -87.678144000245368, 41.84249400019803 ], [ -87.678044000130456, 41.843461999871465 ] ] ] } },
{ "type": "Feature", "properties": { "ward": 25, "precinct": 9, "ward_precinct": "25009" }, "geometry": { "type": "Polygon", "coordinates": [ [ [ -87.675840000115898, 41.852175999722647 ], [ -87.676042000437917, 41.859286000248744 ], [ -87.67359900019369, 41.85951700010952 ], [ -87.668706000281645, 41.859578000224587 ], [ -87.668654999728403, 41.857755999839583 ], [ -87.67109699992659, 41.857724000162534 ], [ -87.670937999788805, 41.852248000345014 ], [ -87.675840000115898, 41.852175999722647 ] ] ] } },
{ "type": "Feature", "properties": { "ward": 25, "precinct": 10, "ward_precinct": "25010" }, "geometry": { "type": "Polygon", "coordinates": [ [ [ -87.670937999788805, 41.852248000345014 ], [ -87.67109699992659, 41.857724000162534 ], [ -87.668654999728403, 41.857755999839583 ], [ -87.668706000281645, 41.859578000224587 ], [ -87.666197999737847, 41.859606999763287 ], [ -87.666023999807692, 41.852330999675928 ], [ -87.670937999788805, 41.852248000345014 ] ] ] } },
{ "type": "Feature", "properties": { "ward": 25, "precinct": 11, "ward_precinct": "25011" }, "geometry": { "type": "Polygon", "coordinates": [ [ [ -87.666023999807692, 41.852330999675928 ], [ -87.666197999737847, 41.859606999763287 ], [ -87.659570999901689, 41.859717000339344 ], [ -87.661151999964773, 41.857879000115815 ], [ -87.661319999618229, 41.857875999977466 ], [ -87.66116399961885, 41.852418000090665 ], [ -87.666023999807692, 41.852330999675928 ] ] ] } },
{ "type": "Feature", "properties": { "ward": 25, "precinct": 12, "ward_precinct": "25012" }, "geometry": { "type": "Polygon", "coordinates": [ [ [ -87.665879000315556, 41.845031000280471 ], [ -87.666023999807692, 41.852330999675928 ], [ -87.66116399961885, 41.852418000090665 ], [ -87.661319999618229, 41.857875999977466 ], [ -87.656428999798493, 41.857952999931058 ], [ -87.656275999937407, 41.852483000390237 ], [ -87.645187000279805, 41.852663999743868 ], [ -87.645164000118484, 41.851896000300201 ], [ -87.644899999635243, 41.850840000165931 ], [ -87.644160999730332, 41.849437000217449 ], [ -87.646245999653104, 41.849252999826149 ], [ -87.649677999639948, 41.848278999876015 ], [ -87.650648000304955, 41.84824300001452 ], [ -87.652526999721204, 41.848020999669473 ], [ -87.653776999808656, 41.847993000176871 ], [ -87.655980999823271, 41.84824300001452 ], [ -87.656768000143074, 41.848252000429511 ], [ -87.65707399986519, 41.848187000129997 ], [ -87.658842999604701, 41.847290000133455 ], [ -87.661546000147723, 41.845441000302003 ], [ -87.663149000326086, 41.844684999613094 ], [ -87.665164999764897, 41.844581000213054 ], [ -87.66538900020214, 41.845034000418821 ], [ -87.665879000315556, 41.845031000280471 ] ] ] } },
{ "type": "Feature", "properties": { "ward": 25, "precinct": 13, "ward_precinct": "25013" }, "geometry": { "type": "Polygon", "coordinates": [ [ [ -87.661151999964773, 41.857879000115815 ], [ -87.657203999564899, 41.862501000121085 ], [ -87.651865999815982, 41.862584000351376 ], [ -87.650892999912003, 41.86228099986829 ], [ -87.650822000235109, 41.859853000315752 ], [ -87.65647900030558, 41.859764999854917 ], [ -87.656428999798493, 41.857952999931058 ], [ -87.661151999964773, 41.857879000115815 ] ] ] } },
{ "type": "Feature", "properties": { "ward": 25, "precinct": 14, "ward_precinct": "25014" }, "geometry": { "type": "Polygon", "coordinates": [ [ [ -87.656275999937407, 41.852483000390237 ], [ -87.65647900030558, 41.859764999854917 ], [ -87.650941000326839, 41.859851000223557 ], [ -87.650889999773653, 41.858031999976845 ], [ -87.651567999563497, 41.858022000415019 ], [ -87.651411000417284, 41.852575000136198 ], [ -87.656275999937407, 41.852483000390237 ] ] ] } },
{ "type": "Feature", "properties": { "ward": 25, "precinct": 15, "ward_precinct": "25015" }, "geometry": { "type": "Polygon", "coordinates": [ [ [ -87.650822000235109, 41.859853000315752 ], [ -87.650892999912003, 41.86228099986829 ], [ -87.647791999900846, 41.862332000421532 ], [ -87.647853000015914, 41.863865000069723 ], [ -87.646821000089062, 41.863866000115877 ], [ -87.646832999743083, 41.86417299988409 ], [ -87.645020999819224, 41.864196000045411 ], [ -87.644934000303806, 41.862371000421376 ], [ -87.644542000213107, 41.862376999798755 ], [ -87.644468000397865, 41.859953999577499 ], [ -87.650822000235109, 41.859853000315752 ] ] ] } },
{ "type": "Feature", "properties": { "ward": 25, "precinct": 16, "ward_precinct": "25016" }, "geometry": { "type": "Polygon", "coordinates": [ [ [ -87.651411000417284, 41.852575000136198 ], [ -87.651567999563497, 41.858022000415019 ], [ -87.650889999773653, 41.858031999976845 ], [ -87.650941000326839, 41.859851000223557 ], [ -87.644221999845399, 41.859955999669694 ], [ -87.644150000122352, 41.856765000004827 ], [ -87.644333999614332, 41.855863999823782 ], [ -87.645048000165048, 41.853419000386623 ], [ -87.645187000279805, 41.852663999743868 ], [ -87.651411000417284, 41.852575000136198 ] ] ] } },
{ "type": "Feature", "properties": { "ward": 25, "precinct": 17, "ward_precinct": "25017" }, "geometry": { "type": "Polygon", "coordinates": [ [ [ -87.644160999730332, 41.849437000217449 ], [ -87.644899999635243, 41.850840000165931 ], [ -87.64509599968062, 41.851520000048026 ], [ -87.645193999703281, 41.852258999952937 ], [ -87.645124000072485, 41.853114999857382 ], [ -87.644243999960565, 41.856210999637995 ], [ -87.644137999569011, 41.856926000234751 ], [ -87.644221999845399, 41.859955999669694 ], [ -87.644468000397865, 41.859953999577499 ], [ -87.644542000213107, 41.862376999798755 ], [ -87.643915000077129, 41.862408000329026 ], [ -87.643272000102684, 41.862568999659686 ], [ -87.642334000014046, 41.862410999568056 ], [ -87.639093999888132, 41.862468000397939 ], [ -87.638857999796812, 41.855557000055569 ], [ -87.638684999912755, 41.854634999805455 ], [ -87.639164000418248, 41.854367000037087 ], [ -87.639777999954674, 41.85366700013202 ], [ -87.6425079999442, 41.850021000169079 ], [ -87.643248999941363, 41.849587999986284 ], [ -87.644160999730332, 41.849437000217449 ] ] ] } }
]
}
